[{"OBJECT_NAME":"STARLINK-3700","OBJECT_ID":"2022-025A","EPOCH":"2026-03-09T03:57:26.961696","MEAN_MOTION":15.29350924,"ECCENTRICITY":0.00012959,"INCLINATION":53.1593,"RA_OF_ASC_NODE":15.8755,"ARG_OF_PERICENTER":94.7722,"MEAN_ANOMALY":265.3427,"EPHEMERIS_TYPE":0,"CLASSIFICATION_TYPE":"U","NORAD_CAT_ID":51956,"ELEMENT_SET_NO":999,"REV_AT_EPOCH":22109,"BSTAR":-1.4216439e-5,"MEAN_MOTION_DOT":-7.66e-6,"MEAN_MOTION_DDOT":0},{"OBJECT_NAME":"LYNK TOWER 5","OBJECT_ID":"2024-043Z","EPOCH":"2026-03-09T22:11:51.175104","MEAN_MOTION":15.29454506,"ECCENTRICITY":0.00104056,"INCLINATION":97.5458,"RA_OF_ASC_NODE":204.7305,"ARG_OF_PERICENTER":234.6422,"MEAN_ANOMALY":125.3846,"EPHEMERIS_TYPE":0,"CLASSIFICATION_TYPE":"U","NORAD_CAT_ID":59121,"ELEMENT_SET_NO":999,"REV_AT_EPOCH":11186,"BSTAR":0.00031901545,"MEAN_MOTION_DOT":9.048e-5,"MEAN_MOTION_DDOT":0}]
